[{"OBJECT_NAME":"YAOGAN-28","OBJECT_ID":"2015-064A","EPOCH":"2026-03-09T23:07:10.370208","MEAN_MOTION":15.26008,"ECCENTRICITY":0.00111911,"INCLINATION":97.2901,"RA_OF_ASC_NODE":209.4389,"ARG_OF_PERICENTER":175.4532,"MEAN_ANOMALY":184.6811,"EPHEMERIS_TYPE":0,"CLASSIFICATION_TYPE":"U","NORAD_CAT_ID":41026,"ELEMENT_SET_NO":999,"REV_AT_EPOCH":57554,"BSTAR":0.00039691695,"MEAN_MOTION_DOT":0.00010159,"MEAN_MOTION_DDOT":0},{"OBJECT_NAME":"STARLINK-30261","OBJECT_ID":"2023-115C","EPOCH":"2026-03-09T04:46:46.456320","MEAN_MOTION":15.27571858,"ECCENTRICITY":0.00025291,"INCLINATION":43.0067,"RA_OF_ASC_NODE":4.5829,"ARG_OF_PERICENTER":262.2498,"MEAN_ANOMALY":97.8066,"EPHEMERIS_TYPE":0,"CLASSIFICATION_TYPE":"U","NORAD_CAT_ID":57523,"ELEMENT_SET_NO":999,"REV_AT_EPOCH":14227,"BSTAR":0.00024712616,"MEAN_MOTION_DOT":6.542e-5,"MEAN_MOTION_DDOT":0}]
